start=new Date('2022-06-05T00:00:00.000Z').valueOf();
sats=[{"TIME_SYSTEM":"UTC","NORAD_CAT_ID":"44954","MEAN_MOTION_DOT":"-0.00000758","EPHEMERIS_TYPE":"0","MEAN_MOTION":"15.06398573","PERIOD":"95.592","MEAN_MOTION_DDOT":"0.0000000000000","OBJECT_NAME":"STARLINK-1066","ELEMENT_SET_NO":"999","REV_AT_EPOCH":"13324","RA_OF_ASC_NODE":"355.1667","OBJECT_TYPE":"PAYLOAD","TLE_LINE2":"2 44954  53.0570 355.1667 0001525  57.9749 302.1388 15.06398573133240","FILE":"3481313","COUNTRY_CODE":"US","RCS_SIZE":"LARGE","SITE":"AFETR","TLE_LINE1":"1 44954U 20001AS  22155.59415385 -.00000758  00000-0 -31964-4 0  9993","CENTER_NAME":"EARTH","SEMIMAJOR_AXIS":"6925.353","EPOCH":"2022-06-04T14:15:34.892640","DECAY_DATE":null,"BSTAR":"-0.00003196400000","LAUNCH_DATE":"2020-01-07","PERIAPSIS":"546.162","MEAN_ELEMENT_THEORY":"SGP4","INCLINATION":"53.0570","ARG_OF_PERICENTER":"57.9749","ECCENTRICITY":"0.00015250","CLASSIFICATION_TYPE":"U","MEAN_ANOMALY":"302.1388","APOAPSIS":"548.274","OBJECT_ID":"2020-001AS","REF_FRAME":"TEME","GP_ID":"205383535"},{"PERIAPSIS":"545.979","BSTAR":"0.00004236100000","LAUNCH_DATE":"2020-01-07","ARG_OF_PERICENTER":"53.3990","INCLINATION":"53.0547","ECCENTRICITY":"0.00018050","MEAN_ELEMENT_THEORY":"SGP4","TLE_LINE1":"1 44955U 20001AT  22155.86691357  .00000349  00000-0  42361-4 0  9996","EPOCH":"2022-06-04T20:48:21.332448","DECAY_DATE":null,"CENTER_NAME":"EARTH","SEMIMAJOR_AXIS":"6925.365","GP_ID":"205357922","REF_FRAME":"TEME","APOAPSIS":"548.480","CLASSIFICATION_TYPE":"U","MEAN_ANOMALY":"306.7164","OBJECT_ID":"2020-001AT","PERIOD":"95.592","OBJECT_NAME":"STARLINK-1069","MEAN_MOTION_DDOT":"0.0000000000000","MEAN_MOTION":"15.06394793","ELEMENT_SET_NO":"999","REV_AT_EPOCH":"13328","NORAD_CAT_ID":"44955","TIME_SYSTEM":"UTC","MEAN_MOTION_DOT":"0.00000349","EPHEMERIS_TYPE":"0","RCS_SIZE":"LARGE","SITE":"AFETR","RA_OF_ASC_NODE":"353.9551","TLE_LINE2":"2 44955  53.0547 353.9551 0001805  53.3990 306.7164 15.06394793133288","OBJECT_TYPE":"PAYLOAD","COUNTRY_CODE":"US","FILE":"3481041"},{"RA_OF_ASC_NODE":"354.8699","COUNTRY_CODE":"US","FILE":"3481313","TLE_LINE2":"2 44956  53.0542 354.8699 0001491  77.9317 282.1839 15.06388294133312","OBJECT_TYPE":"PAYLOAD","RCS_SIZE":"LARGE","SITE":"AFETR","TIME_SYSTEM":"UTC","NORAD_CAT_ID":"44956","EPHEMERIS_TYPE":"0","MEAN_MOTION_DOT":"-0.00000187","OBJECT_NAME":"STARLINK-1070","PERIOD":"95.593","MEAN_MOTION_DDOT":"0.0000000000000","MEAN_MOTION":"15.06388294","REV_AT_EPOCH":"13331","ELEMENT_SET_NO":"999","MEAN_ANOMALY":"282.1839","CLASSIFICATION_TYPE":"U","APOAPSIS":"548.282","OBJECT_ID":"2020-001AU","REF_FRAME":"TEME","GP_ID":"205383037","TLE_LINE1":"1 44956U 20001AU  22155.66418947 -.00000187  00000-0  63485-5 0  9999","SEMIMAJOR_AXIS":"6925.384","CENTER_NAME":"EARTH","DECAY_DATE":null,"EPOCH":"2022-06-04T15:56:25.970208","LAUNCH_DATE":"2020-01-07","BSTAR":"0.00000634850000","PERIAPSIS":"546.217","MEAN_ELEMENT_THEORY":"SGP4","ECCENTRICITY":"0.00014910","INCLINATION":"53.0542","ARG_OF_PERICENTER":"77.9317"},{"APOAPSIS":"548.369","MEAN_ANOMALY":"287.4442","CLASSIFICATION_TYPE":"U","OBJECT_ID":"2020-001AV","GP_ID":"205382787","REF_FRAME":"TEME","TLE_LINE1":"1 44957U 20001AV  22155.82173882  .00000668  00000-0  63721-4 0  9999","DECAY_DATE":null,"EPOCH":"2022-06-04T19:43:18.234048","SEMIMAJOR_AXIS":"6925.354","CENTER_NAME":"EARTH","PERIAPSIS":"546.070","LAUNCH_DATE":"2020-01-07","BSTAR":"0.00006372100000","ECCENTRICITY":"0.00016600","INCLINATION":"53.0545","ARG_OF_PERICENTER":"72.6728","MEAN_ELEMENT_THEORY":"SGP4","RA_OF_ASC_NODE":"354.1436","FILE":"3481313","COUNTRY_CODE":"US","OBJECT_TYPE":"PAYLOAD","TLE_LINE2":"2 44957  53.0545 354.1436 0001660  72.6728 287.4442 15.06398091133330","RCS_SIZE":"LARGE","SITE":"AFETR","NORAD_CAT_ID":"44957","TIME_SYSTEM":"UTC","EPHEMERIS_TYPE":"0","MEAN_MOTION_DOT":"0.00000668","MEAN_MOTION":"15.06398091","PERIOD":"95.592","MEAN_MOTION_DDOT":"0.0000000000000","OBJECT_NAME":"STARLINK-1074","REV_AT_EPOCH":"13333","ELEMENT_SET_NO":"999"},{"OBJECT_ID":"2020-001AX","APOAPSIS":"548.476","MEAN_ANOMALY":"306.7403","CLASSIFICATION_TYPE":"U","GP_ID":"205384036","REF_FRAME":"TEME","DECAY_DATE":null,"EPOCH":"2022-06-04T20:05:53.276352","SEMIMAJOR_AXIS":"6925.360","CENTER_NAME":"EARTH","TLE_LINE1":"1 44959U 20001AX  22155.83742218  .00000970  00000-0  84026-4 0  9994","ECCENTRICITY":"0.00018060","INCLINATION":"53.0554","ARG_OF_PERICENTER":"53.3752","MEAN_ELEMENT_THEORY":"SGP4","PERIAPSIS":"545.975","LAUNCH_DATE":"2020-01-07","BSTAR":"0.00008402600000","COUNTRY_CODE":"US","FILE":"3481313","TLE_LINE2":"2 44959  53.0554 354.0773 0001806  53.3752 306.7403 15.06396190133330","OBJECT_TYPE":"PAYLOAD","RA_OF_ASC_NODE":"354.0773","SITE":"AFETR","RCS_SIZE":"LARGE","EPHEMERIS_TYPE":"0","MEAN_MOTION_DOT":"0.00000970","NORAD_CAT_ID":"44959","TIME_SYSTEM":"UTC","REV_AT_EPOCH":"13333","ELEMENT_SET_NO":"999","PERIOD":"95.592","OBJECT_NAME":"STARLINK-1076","MEAN_MOTION_DDOT":"0.0000000000000","MEAN_MOTION":"15.06396190"},{"RCS_SIZE":"LARGE","SITE":"AFETR","RA_OF_ASC_NODE":"354.0611","TLE_LINE2":"2 44961  53.0554 354.0611 0001361  77.2428 282.8713 15.06401004133345","OBJECT_TYPE":"PAYLOAD","FILE":"3481313","COUNTRY_CODE":"US","PERIOD":"95.592","MEAN_MOTION_DDOT":"0.0000000000000","OBJECT_NAME":"STARLINK-1080","MEAN_MOTION":"15.06401004","ELEMENT_SET_NO":"999","REV_AT_EPOCH":"13334","TIME_SYSTEM":"UTC","NORAD_CAT_ID":"44961","MEAN_MOTION_DOT":"0.00000782","EPHEMERIS_TYPE":"0","REF_FRAME":"TEME","GP_ID":"205383783","CLASSIFICATION_TYPE":"U","MEAN_ANOMALY":"282.8713","APOAPSIS":"548.153","OBJECT_ID":"2020-001AZ","BSTAR":"0.00007141100000","LAUNCH_DATE":"2020-01-07","PERIAPSIS":"546.268","MEAN_ELEMENT_THEORY":"SGP4","ARG_OF_PERICENTER":"77.2428","INCLINATION":"53.0554","ECCENTRICITY":"0.00013610","TLE_LINE1":"1 44961U 20001AZ  22155.84479537  .00000782  00000-0  71411-4 0  9994","CENTER_NAME":"EARTH","SEMIMAJOR_AXIS":"6925.345","EPOCH":"2022-06-04T20:16:30.319968","DECAY_DATE":null},{"RA_OF_ASC_NODE":"342.7961","FILE":"3481313","COUNTRY_CODE":"US","TLE_LINE2":"2 44963  52.9977 342.7961 0001348 120.2578 239.8547 15.14884979134192","OBJECT_TYPE":"PAYLOAD","RCS_SIZE":"LARGE","SITE":"AFETR","TIME_SYSTEM":"UTC","NORAD_CAT_ID":"44963","EPHEMERIS_TYPE":"0","MEAN_MOTION_DOT":"0.00014037","MEAN_MOTION_DDOT":"0.0000000000000","PERIOD":"95.057","MEAN_MOTION":"15.14884979","OBJECT_NAME":"STARLINK-1085","REV_AT_EPOCH":"13419","ELEMENT_SET_NO":"999","MEAN_ANOMALY":"239.8547","CLASSIFICATION_TYPE":"U","APOAPSIS":"522.260","OBJECT_ID":"2020-001BB","REF_FRAME":"TEME","GP_ID":"205382537","TLE_LINE1":"1 44963U 20001BB  22155.78313295  .00014037  00000-0  76014-3 0  9998","SEMIMAJOR_AXIS":"6899.465","CENTER_NAME":"EARTH","DECAY_DATE":null,"EPOCH":"2022-06-04T18:47:42.686880","LAUNCH_DATE":"2020-01-07","BSTAR":"0.00076014000000","PERIAPSIS":"520.400","MEAN_ELEMENT_THEORY":"SGP4","ECCENTRICITY":"0.00013480","INCLINATION":"52.9977","ARG_OF_PERICENTER":"120.2578"},{"NORAD_CAT_ID":"44964","TIME_SYSTEM":"UTC","EPHEMERIS_TYPE":"0","MEAN_MOTION_DOT":"0.00000568","MEAN_MOTION":"15.06398921","PERIOD":"95.592","MEAN_MOTION_DDOT":"0.0000000000000","OBJECT_NAME":"STARLINK-1086","REV_AT_EPOCH":"13333","ELEMENT_SET_NO":"999","RA_OF_ASC_NODE":"354.2054","COUNTRY_CODE":"US","FILE":"3481313","TLE_LINE2":"2 44964  53.0559 354.2054 0001472  81.7996 278.3160 15.06398921133337","OBJECT_TYPE":"PAYLOAD","RCS_SIZE":"LARGE","SITE":"AFETR","TLE_LINE1":"1 44964U 20001BC  22155.80793230  .00000568  00000-0  57036-4 0  9991","DECAY_DATE":null,"EPOCH":"2022-06-04T19:23:25.350720","SEMIMAJOR_AXIS":"6925.352","CENTER_NAME":"EARTH","PERIAPSIS":"546.197","LAUNCH_DATE":"2020-01-07","BSTAR":"0.00005703600000","ECCENTRICITY":"0.00014720","INCLINATION":"53.0559","ARG_OF_PERICENTER":"81.7996","MEAN_ELEMENT_THEORY":"SGP4","APOAPSIS":"548.236","MEAN_ANOMALY":"278.3160","CLASSIFICATION_TYPE":"U","OBJECT_ID":"2020-001BC","GP_ID":"205383288","REF_FRAME":"TEME"},{"MEAN_ANOMALY":"278.1758","CLASSIFICATION_TYPE":"U","APOAPSIS":"548.282","OBJECT_ID":"2020-001BE","REF_FRAME":"TEME","GP_ID":"205383536","TLE_LINE1":"1 44966U 20001BE  22155.83004386  .00000071  00000-0  23638-4 0  9993","SEMIMAJOR_AXIS":"6925.326","CENTER_NAME":"EARTH","DECAY_DATE":null,"EPOCH":"2022-06-04T19:55:15.789504","LAUNCH_DATE":"2020-01-07","BSTAR":"0.00002363800000","PERIAPSIS":"546.100","MEAN_ELEMENT_THEORY":"SGP4","ECCENTRICITY":"0.00015750","INCLINATION":"53.0564","ARG_OF_PERICENTER":"81.9410","RA_OF_ASC_NODE":"354.1234","COUNTRY_CODE":"US","FILE":"3481313","TLE_LINE2":"2 44966  53.0564 354.1234 0001575  81.9410 278.1758 15.06407430133338","OBJECT_TYPE":"PAYLOAD","RCS_SIZE":"LARGE","SITE":"AFETR","TIME_SYSTEM":"UTC","NORAD_CAT_ID":"44966","EPHEMERIS_TYPE":"0","MEAN_MOTION_DOT":"0.00000071","MEAN_MOTION_DDOT":"0.0000000000000","PERIOD":"95.592","OBJECT_NAME":"STARLINK-1088","MEAN_MOTION":"15.06407430","REV_AT_EPOCH":"13333","ELEMENT_SET_NO":"999"},{"MEAN_ELEMENT_THEORY":"SGP4","ECCENTRICITY":"0.00019870","INCLINATION":"53.0579","ARG_OF_PERICENTER":"85.6574","LAUNCH_DATE":"2020-01-07","BSTAR":"0.00002530900000","PERIAPSIS":"545.865","SEMIMAJOR_AXIS":"6925.376","CENTER_NAME":"EARTH","DECAY_DATE":null,"EPOCH":"2022-06-04T20:27:07.423200","TLE_LINE1":"1 44967U 20001BF  22155.85216925  .00000095  00000-0  25309-4 0  9993","REF_FRAME":"TEME","GP_ID":"205384284","OBJECT_ID":"2020-001BF","MEAN_ANOMALY":"274.4642","CLASSIFICATION_TYPE":"U","APOAPSIS":"548.617","REV_AT_EPOCH":"13334","ELEMENT_SET_NO":"999","PERIOD":"95.593","OBJECT_NAME":"STARLINK-1089","MEAN_MOTION_DDOT":"0.0000000000000","MEAN_MOTION":"15.06391067","EPHEMERIS_TYPE":"0","MEAN_MOTION_DOT":"0.00000095","TIME_SYSTEM":"UTC","NORAD_CAT_ID":"44967","SITE":"AFETR","RCS_SIZE":"LARGE","COUNTRY_CODE":"US","FILE":"3481313","OBJECT_TYPE":"PAYLOAD","TLE_LINE2":"2 44967  53.0579 354.0220 0001987  85.6574 274.4642 15.06391067133348","RA_OF_ASC_NODE":"354.0220"}];
